{"fetched_at":"2026-07-07T07:58:14.001Z","source":"https://celestrak.org/NORAD/elements/gp.php?GROUP=spire&FORMAT=JSON","constellation":"spire","records":[{"OBJECT_NAME":"LEMUR-2-LEIA-PHILIP","OBJECT_ID":"2025-052AN","EPOCH":"2026-07-06T15:35:52.723392","CLASSIFICATION_TYPE":"U","MEAN_MOTION":14.97373986,"ECCENTRICITY":0.0004805,"INCLINATION":97.6815,"RA_OF_ASC_NODE":79.2713,"ARG_OF_PERICENTER":141.4214,"MEAN_ANOMALY":218.7352,"EPHEMERIS_TYPE":0,"NORAD_CAT_ID":63246,"ELEMENT_SET_NO":999,"REV_AT_EPOCH":7158,"BSTAR":0.00019035,"MEAN_MOTION_DOT":0.00002154,"MEAN_MOTION_DDOT":0},{"OBJECT_NAME":"LEMUR-2-LIA-MARTIN","OBJECT_ID":"2025-052AQ","EPOCH":"2026-07-06T15:33:07.566336","CLASSIFICATION_TYPE":"U","MEAN_MOTION":14.97976249,"ECCENTRICITY":0.0005203,"INCLINATION":97.6861,"RA_OF_ASC_NODE":79.773,"ARG_OF_PERICENTER":111.5295,"MEAN_ANOMALY":248.6482,"EPHEMERIS_TYPE":0,"NORAD_CAT_ID":63248,"ELEMENT_SET_NO":999,"REV_AT_EPOCH":7159,"BSTAR":0.00039684,"MEAN_MOTION_DOT":0.00004626,"MEAN_MOTION_DDOT":0},{"OBJECT_NAME":"LEMUR-2-DELOITTE-1","OBJECT_ID":"2025-052BB","EPOCH":"2026-07-06T16:39:10.933920","CLASSIFICATION_TYPE":"U","MEAN_MOTION":14.97742162,"ECCENTRICITY":0.0002286,"INCLINATION":97.6883,"RA_OF_ASC_NODE":80.1499,"ARG_OF_PERICENTER":65.5794,"MEAN_ANOMALY":294.5666,"EPHEMERIS_TYPE":0,"NORAD_CAT_ID":63259,"ELEMENT_SET_NO":999,"REV_AT_EPOCH":7161,"BSTAR":0.00028529,"MEAN_MOTION_DOT":0.00003288,"MEAN_MOTION_DDOT":0},{"OBJECT_NAME":"LEMUR-2-EMERSONROSE","OBJECT_ID":"2025-052BD","EPOCH":"2026-07-06T20:24:05.264352","CLASSIFICATION_TYPE":"U","MEAN_MOTION":14.99238237,"ECCENTRICITY":0.0002731,"INCLINATION":97.687,"RA_OF_ASC_NODE":80.8979,"ARG_OF_PERICENTER":74.1277,"MEAN_ANOMALY":286.0247,"EPHEMERIS_TYPE":0,"NORAD_CAT_ID":63261,"ELEMENT_SET_NO":999,"REV_AT_EPOCH":7168,"BSTAR":0.00032228,"MEAN_MOTION_DOT":0.00003871,"MEAN_MOTION_DDOT":0},{"OBJECT_NAME":"LEMUR-2-MARACHE-FRAN","OBJECT_ID":"2025-052BE","EPOCH":"2026-07-06T16:16:55.737696","CLASSIFICATION_TYPE":"U","MEAN_MOTION":15.00278631,"ECCENTRICITY":0.000446,"INCLINATION":97.6869,"RA_OF_ASC_NODE":81.0855,"ARG_OF_PERICENTER":292.5592,"MEAN_ANOMALY":67.516,"EPHEMERIS_TYPE":0,"NORAD_CAT_ID":63262,"ELEMENT_SET_NO":999,"REV_AT_EPOCH":7168,"BSTAR":0.00029436,"MEAN_MOTION_DOT":0.00003628,"MEAN_MOTION_DDOT":0},{"OBJECT_NAME":"LEMUR-2-THEFALCONER","OBJECT_ID":"2025-052BG","EPOCH":"2026-07-06T15:45:05.781024","CLASSIFICATION_TYPE":"U","MEAN_MOTION":14.97530588,"ECCENTRICITY":0.0000945,"INCLINATION":97.6843,"RA_OF_ASC_NODE":79.7114,"ARG_OF_PERICENTER":28.865,"MEAN_ANOMALY":331.2624,"EPHEMERIS_TYPE":0,"NORAD_CAT_ID":63264,"ELEMENT_SET_NO":999,"REV_AT_EPOCH":7160,"BSTAR":0.00034563,"MEAN_MOTION_DOT":0.00003974,"MEAN_MOTION_DDOT":0},{"OBJECT_NAME":"LEMUR-2-UNTITLED-SC","OBJECT_ID":"2025-061A","EPOCH":"2026-07-06T20:33:01.416960","CLASSIFICATION_TYPE":"U","MEAN_MOTION":15.13610698,"ECCENTRICITY":0.0018334,"INCLINATION":97.5648,"RA_OF_ASC_NODE":163.0768,"ARG_OF_PERICENTER":191.504,"MEAN_ANOMALY":168.5775,"EPHEMERIS_TYPE":0,"NORAD_CAT_ID":63351,"ELEMENT_SET_NO":999,"REV_AT_EPOCH":7056,"BSTAR":0.00014703,"MEAN_MOTION_DOT":0.00002583,"MEAN_MOTION_DDOT":0},{"OBJECT_NAME":"LEMUR-2-ESPERANZA","OBJECT_ID":"2025-061B","EPOCH":"2026-07-06T16:47:58.337664","CLASSIFICATION_TYPE":"U","MEAN_MOTION":15.13717061,"ECCENTRICITY":0.001796,"INCLINATION":97.5653,"RA_OF_ASC_NODE":163.0196,"ARG_OF_PERICENTER":191.3991,"MEAN_ANOMALY":168.6836,"EPHEMERIS_TYPE":0,"NORAD_CAT_ID":63352,"ELEMENT_SET_NO":999,"REV_AT_EPOCH":7054,"BSTAR":0.00023161,"MEAN_MOTION_DOT":0.0000412,"MEAN_MOTION_DDOT":0},{"OBJECT_NAME":"LEMUR-2-KREMPEL-BRO2","OBJECT_ID":"2025-061C","EPOCH":"2026-07-06T10:58:04.050048","CLASSIFICATION_TYPE":"U","MEAN_MOTION":15.14139561,"ECCENTRICITY":0.0019039,"INCLINATION":97.5703,"RA_OF_ASC_NODE":163.3364,"ARG_OF_PERICENTER":184.8544,"MEAN_ANOMALY":175.2506,"EPHEMERIS_TYPE":0,"NORAD_CAT_ID":63353,"ELEMENT_SET_NO":999,"REV_AT_EPOCH":7052,"BSTAR":0.00017087,"MEAN_MOTION_DOT":0.0000306,"MEAN_MOTION_DDOT":0},{"OBJECT_NAME":"LEMUR-2-THERMORAPTOR","OBJECT_ID":"2025-061D","EPOCH":"2026-07-06T20:01:42.737088","CLASSIFICATION_TYPE":"U","MEAN_MOTION":15.14223272,"ECCENTRICITY":0.0018857,"INCLINATION":97.5706,"RA_OF_ASC_NODE":163.791,"ARG_OF_PERICENTER":182.379,"MEAN_ANOMALY":177.7355,"EPHEMERIS_TYPE":0,"NORAD_CAT_ID":63354,"ELEMENT_SET_NO":999,"REV_AT_EPOCH":7058,"BSTAR":0.00015208,"MEAN_MOTION_DOT":0.00002722,"MEAN_MOTION_DDOT":0},{"OBJECT_NAME":"LEMUR-2-NEUROSPICY","OBJECT_ID":"2025-061E","EPOCH":"2026-07-06T17:43:36.175296","CLASSIFICATION_TYPE":"U","MEAN_MOTION":15.14342318,"ECCENTRICITY":0.0016596,"INCLINATION":97.5634,"RA_OF_ASC_NODE":163.3068,"ARG_OF_PERICENTER":185.6579,"MEAN_ANOMALY":174.4468,"EPHEMERIS_TYPE":0,"NORAD_CAT_ID":63355,"ELEMENT_SET_NO":999,"REV_AT_EPOCH":7057,"BSTAR":0.00020106,"MEAN_MOTION_DOT":0.00003629,"MEAN_MOTION_DDOT":0},{"OBJECT_NAME":"LEMUR-2-TILLINFINITY","OBJECT_ID":"2025-061F","EPOCH":"2026-07-06T10:27:57.354336","CLASSIFICATION_TYPE":"U","MEAN_MOTION":15.14922509,"ECCENTRICITY":0.0018167,"INCLINATION":97.562,"RA_OF_ASC_NODE":163.31,"ARG_OF_PERICENTER":175.1118,"MEAN_ANOMALY":185.0295,"EPHEMERIS_TYPE":0,"NORAD_CAT_ID":63356,"ELEMENT_SET_NO":999,"REV_AT_EPOCH":7055,"BSTAR":0.00017208,"MEAN_MOTION_DOT":0.0000315,"MEAN_MOTION_DDOT":0},{"OBJECT_NAME":"LEMUR-2-KREMPEL-BRO1","OBJECT_ID":"2025-061G","EPOCH":"2026-07-06T17:48:56.320128","CLASSIFICATION_TYPE":"U","MEAN_MOTION":15.14733329,"ECCENTRICITY":0.0018813,"INCLINATION":97.5621,"RA_OF_ASC_NODE":163.5252,"ARG_OF_PERICENTER":175.6075,"MEAN_ANOMALY":184.5326,"EPHEMERIS_TYPE":0,"NORAD_CAT_ID":63357,"ELEMENT_SET_NO":999,"REV_AT_EPOCH":7059,"BSTAR":0.00020433,"MEAN_MOTION_DOT":0.00003734,"MEAN_MOTION_DDOT":0},{"OBJECT_NAME":"LEMUR-2-LANGER2SPACE","OBJECT_ID":"2025-061H","EPOCH":"2026-07-06T10:37:00.824160","CLASSIFICATION_TYPE":"U","MEAN_MOTION":15.14424704,"ECCENTRICITY":0.001653,"INCLINATION":97.5625,"RA_OF_ASC_NODE":163.0333,"ARG_OF_PERICENTER":184.8273,"MEAN_ANOMALY":175.2802,"EPHEMERIS_TYPE":0,"NORAD_CAT_ID":63358,"ELEMENT_SET_NO":999,"REV_AT_EPOCH":7053,"BSTAR":0.00017104,"MEAN_MOTION_DOT":0.00003084,"MEAN_MOTION_DDOT":0},{"OBJECT_NAME":"LEMUR-2-BALTO","OBJECT_ID":"2025-052BH","EPOCH":"2026-07-06T15:54:45.033408","CLASSIFICATION_TYPE":"U","MEAN_MOTION":15.00309534,"ECCENTRICITY":0.0005705,"INCLINATION":97.6926,"RA_OF_ASC_NODE":81.0497,"ARG_OF_PERICENTER":0.8903,"MEAN_ANOMALY":359.2329,"EPHEMERIS_TYPE":0,"NORAD_CAT_ID":63395,"ELEMENT_SET_NO":999,"REV_AT_EPOCH":7168,"BSTAR":0.00038376,"MEAN_MOTION_DOT":0.00004754,"MEAN_MOTION_DDOT":0},{"OBJECT_NAME":"LEMUR-2-KRISH","OBJECT_ID":"2025-135AK","EPOCH":"2026-07-06T17:38:33.510912","CLASSIFICATION_TYPE":"U","MEAN_MOTION":14.9639726,"ECCENTRICITY":0.0001717,"INCLINATION":97.7758,"RA_OF_ASC_NODE":302.4794,"ARG_OF_PERICENTER":101.7951,"MEAN_ANOMALY":258.3462,"EPHEMERIS_TYPE":0,"NORAD_CAT_ID":64561,"ELEMENT_SET_NO":999,"REV_AT_EPOCH":5684,"BSTAR":0.00044172,"MEAN_MOTION_DOT":0.00004948,"MEAN_MOTION_DDOT":0}]}
